{
    "links": {
        "self": "http://www.neowsapp.com/rest/v1/neo/3167355?api_key=iIulBulltgU6a56xZRHN4H3l9WmuAYTsLGpBGhQ2"
    },
    "id": "3167355",
    "neo_reference_id": "3167355",
    "name": "(2003 WR25)",
    "designation": "2003 WR25",
    "nasa_jpl_url": "http://ssd.jpl.nasa.gov/sbdb.cgi?sstr=3167355",
    "absolute_magnitude_h": 19.6,
    "estimated_diameter": {
        "kilometers": {
            "estimated_diameter_min": 0.3195618867,
            "estimated_diameter_max": 0.7145621017
        },
        "meters": {
            "estimated_diameter_min": 319.5618867213,
            "estimated_diameter_max": 714.5621017269
        },
        "miles": {
            "estimated_diameter_min": 0.1985664891,
            "estimated_diameter_max": 0.4440081677
        },
        "feet": {
            "estimated_diameter_min": 1048.4314204307,
            "estimated_diameter_max": 2344.3639258298
        }
    },
    "is_potentially_hazardous_asteroid": false,
    "close_approach_data": [
        {
            "close_approach_date": "1997-07-16",
            "close_approach_date_full": "1997-Jul-16 05:46",
            "epoch_date_close_approach": 869031960000,
            "relative_velocity": {
                "kilometers_per_second": "26.0541239785",
                "kilometers_per_hour": "93794.8463225878",
                "miles_per_hour": "58280.469927499"
            },
            "miss_distance": {
                "astronomical": "0.4800998906",
                "lunar": "186.7588574434",
                "kilometers": "71821921.020993022",
                "miles": "44628072.2912348236"
            },
            "orbiting_body": "Earth"
        },
        {
            "close_approach_date": "2003-10-29",
            "close_approach_date_full": "2003-Oct-29 02:47",
            "epoch_date_close_approach": 1067395620000,
            "relative_velocity": {
                "kilometers_per_second": "12.4821709289",
                "kilometers_per_hour": "44935.8153441984",
                "miles_per_hour": "27921.3681509548"
            },
            "miss_distance": {
                "astronomical": "0.1684546735",
                "lunar": "65.5288679915",
                "kilometers": "25200460.347145445",
                "miles": "15658839.949659341"
            },
            "orbiting_body": "Earth"
        },
        {
            "close_approach_date": "2111-11-30",
            "close_approach_date_full": "2111-Nov-30 00:27",
            "epoch_date_close_approach": 4478286420000,
            "relative_velocity": {
                "kilometers_per_second": "10.9372258246",
                "kilometers_per_hour": "39374.0129686543",
                "miles_per_hour": "24465.4804471063"
            },
            "miss_distance": {
                "astronomical": "1.6820988575",
                "lunar": "654.3364555675",
                "kilometers": "251638406.211433525",
                "miles": "156360855.070591645"
            },
            "orbiting_body": "Juptr"
        }
    ],
    "orbital_data": {
        "orbit_id": "17",
        "orbit_determination_date": "2017-04-06 09:13:31",
        "first_observation_date": "2003-11-21",
        "last_observation_date": "2003-12-26",
        "data_arc_in_days": 35,
        "observations_used": 61,
        "orbit_uncertainty": "7",
        "minimum_orbit_intersection": ".0954964",
        "jupiter_tisserand_invariant": "2.668",
        "epoch_osculation": "2459000.5",
        "eccentricity": ".7082116051944258",
        "semi_major_axis": "3.363910888626152",
        "inclination": "8.978311716707841",
        "ascending_node_longitude": "117.4111752247558",
        "orbital_period": "2253.539375725643",
        "perihelion_distance": ".9815501584612174",
        "perihelion_argument": "245.3674970959609",
        "aphelion_distance": "5.746271618791086",
        "perihelion_time": "2459666.250029440014",
        "mean_anomaly": "253.647294038858",
        "mean_motion": ".1597487063584498",
        "equinox": "J2000",
        "orbit_class": {
            "orbit_class_type": "APO",
            "orbit_class_description": "Near-Earth asteroid orbits which cross the Earth’s orbit similar to that of 1862 Apollo",
            "orbit_class_range": "a (semi-major axis) > 1.0 AU; q (perihelion) < 1.017 AU"
        }
    },
    "is_sentry_object": false
}